$$SOE
2460154.500000000, A.D. 2023-Jul-29 00:00:00.0000, -3.581049591350229E+08, -4.979851152038909E+07, -2.872417449725643E+07,
2460161.500000000, A.D. 2023-Aug-05 00:00:00.0000, -3.555655848034396E+08, -6.073395823070401E+07, -3.107545468050649E+07,
2460168.500000000, A.D. 2023-Aug-12 00:00:00.0000, -3.526625840280841E+08, -7.160728849010316E+07, -3.339494533507944E+07,
2460175.500000000, A.D. 2023-Aug-19 00:00:00.0000, -3.493969909156402E+08, -8.240698921979964E+07, -3.568009034249337E+07,
2460182.500000000, A.D. 2023-Aug-26 00:00:00.0000, -3.457702120111523E+08, -9.312149636779678E+07, -3.792834015950380E+07,
2460189.500000000, A.D. 2023-Sep-02 00:00:00.0000, -3.417840332539110E+08, -1.037392053587117E+08, -4.013715452579936E+07,
2460196.500000000, A.D. 2023-Sep-09 00:00:00.0000, -3.374406267210134E+08, -1.142484822004300E+08, -4.230400529651631E+07,
2460203.500000000, A.D. 2023-Sep-16 00:00:00.0000, -3.327425569536977E+08, -1.246376753156529E+08, -4.442637942008203E+07,
2460210.500000000, A.D. 2023-Sep-23 00:00:00.0000, -3.276927864116284E+08, -1.348951278195181E+08, -4.650178207592421E+07,
2460217.500000000, A.D. 2023-Sep-30 00:00:00.0000, -3.222946803536478E+08, -1.450091890581485E+08, -4.852773984259550E+07,
2460224.500000000, A.D. 2023-Oct-07 00:00:00.0000, -3.165520134552293E+08, -1.549682259550354E+08, -5.050180372317964E+07,
2460231.500000000, A.D. 2023-Oct-14 00:00:00.0000, -3.104689770799868E+08, -1.647606374818610E+08, -5.242155239276864E+07,
2460238.500000000, A.D. 2023-Oct-21 00:00:00.0000, -3.040501839349411E+08, -1.743748706504648E+08, -5.428459583152787E+07,
2460245.500000000, A.D. 2023-Oct-28 00:00:00.0000, -2.973006714880260E+08, -1.837994357589059E+08, -5.608857902429013E+07,
2460252.500000000, A.D. 2023-Nov-04 00:00:00.0000, -2.902259053469753E+08, -1.930229216518429E+08, -5.783118566941248E+07,
2460259.500000000, A.D. 2023-Nov-11 00:00:00.0000, -2.828317823700126E+08, -2.020340115844314E+08, -5.951014195637437E+07,
2460266.500000000, A.D. 2023-Nov-18 00:00:00.0000, -2.751246332387550E+08, -2.108214997413387E+08, -6.112322043199176E+07,
2460273.500000000, A.D. 2023-Nov-25 00:00:00.0000, -2.671112243714363E+08, -2.193743083706840E+08, -6.266824395390575E+07,
2460280.500000000, A.D. 2023-Dec-02 00:00:00.0000, -2.587987590982235E+08, -2.276815055211541E+08, -6.414308972726664E+07,
2460287.500000000, A.D. 2023-Dec-09 00:00:00.0000, -2.501948779697313E+08, -2.357323234139113E+08, -6.554569342777771E+07,
2460294.500000000, A.D. 2023-Dec-16 00:00:00.0000, -2.413076578601352E+08, -2.435161774053939E+08, -6.687405342677303E+07,
2460301.500000000, A.D. 2023-Dec-23 00:00:00.0000, -2.321456094660518E+08, -2.510226848177255E+08, -6.812623508355819E+07,
2460308.500000000, A.D. 2023-Dec-30 00:00:00.0000, -2.227176744914209E+08, -2.582416825465108E+08, -6.930037488467340E+07,
2460315.500000000, A.D. 2024-Jan-06 00:00:00.0000, -2.130332242415130E+08, -2.651632457619364E+08, -7.039468444815071E+07,
2460322.500000000, A.D. 2024-Jan-13 00:00:00.0000, -2.031020564081787E+08, -2.717777094634361E+08, -7.140745481976494E+07,
2460329.500000000, A.D. 2024-Jan-20 00:00:00.0000, -1.929343887834622E+08, -2.780756897515453E+08, -7.233706090936741E+07,
2460336.500000000, A.D. 2024-Jan-27 00:00:00.0000, -1.825408518941405E+08, -2.840481041040247E+08, -7.318196581335907E+07,
2460343.500000000, A.D. 2024-Feb-03 00:00:00.0000, -1.719324809508824E+08, -2.896861915352906E+08, -7.394072504357545E+07,
2460350.500000000, A.D. 2024-Feb-10 00:00:00.0000, -1.611207067998720E+08, -2.949815328539165E+08, -7.461199069057631E+07,
2460357.500000000, A.D. 2024-Feb-17 00:00:00.0000, -1.501173457031687E+08, -2.999260709319503E+08, -7.519451551113221E+07,
2460364.500000000, A.D. 2024-Feb-24 00:00:00.0000, -1.389345878808647E+08, -3.045121308951043E+08, -7.568715692193758E+07,
2460371.500000000, A.D. 2024-Mar-02 00:00:00.0000, -1.275849847640746E+08, -3.087324401915996E+08, -7.608888088811716E+07,
2460378.500000000, A.D. 2024-Mar-09 00:00:00.0000, -1.160814348096739E+08, -3.125801485251136E+08, -7.639876570907834E+07,
2460385.500000000, A.D. 2024-Mar-16 00:00:00.0000, -1.044371674807997E+08, -3.160488473713357E+08, -7.661600570537537E+07,
2460392.500000000, A.D. 2024-Mar-23 00:00:00.0000, -9.266572550279941E+07, -3.191325878793831E+08, -7.673991468742096E+07,
2460399.500000000, A.D. 2024-Mar-30 00:00:00.0000, -8.078094764650266E+07, -3.218258970896043E+08, -7.676992898120373E+07,
2460406.500000000, A.D. 2024-Apr-06 00:00:00.0000, -6.879695179761383E+07, -3.241237957383655E+08, -7.670561028767964E+07,
2460413.500000000, A.D. 2024-Apr-13 00:00:00.0000, -5.672811478332128E+07, -3.260218167194301E+08, -7.654664861277318E+07,
2460420.500000000, A.D. 2024-Apr-20 00:00:00.0000, -4.458904994027288E+07, -3.275160214327344E+08, -7.629286494247927E+07,
2460427.500000000, A.D. 2024-Apr-27 00:00:00.0000, -3.239458398153317E+07, -3.286030144887606E+08, -7.594421355049004E+07,
2460434.500000000, A.D. 2024-May-04 00:00:00.0000, -2.015973312356253E+07, -3.292799573794410E+08, -7.550078398511779E+07,
2460441.500000000, A.D. 2024-May-11 00:00:00.0000, -7.899678292431206E+06, -3.295445811264729E+08, -7.496280274757777E+07,
2460448.500000000, A.D. 2024-May-18 00:00:00.0000, 4.370260607538483E+06, -3.293951977966716E+08, -7.433063465014862E+07,
2460455.500000000, A.D. 2024-May-25 00:00:00.0000, 1.663465131547265E+07, -3.288307108074421E+08, -7.360478384174144E+07,
2460462.500000000, A.D. 2024-Jun-01 00:00:00.0000, 2.887797670585800E+07, -3.278506240031264E+08, -7.278589449836665E+07,
2460469.500000000, A.D. 2024-Jun-08 00:00:00.0000, 4.108466330756493E+07, -3.264550494556279E+08, -7.187475119220026E+07,
2460476.500000000, A.D. 2024-Jun-15 00:00:00.0000, 5.323911115130976E+07, -3.246447133804497E+08, -7.087227892163788E+07,
2460483.500000000, A.D. 2024-Jun-22 00:00:00.0000, 6.532572383469901E+07, -3.224209589345148E+08, -6.977954260520718E+07,
2460490.500000000, A.D. 2024-Jun-29 00:00:00.0000, 7.732893657149707E+07, -3.197857476625121E+08, -6.859774598532359E+07,
2460497.500000000, A.D. 2024-Jul-06 00:00:00.0000, 8.923324475496097E+07, -3.167416620156331E+08, -6.732823037990223E+07,
2460504.500000000, A.D. 2024-Jul-13 00:00:00.0000, 1.010232348663500E+08, -3.132919060829682E+08, -6.597247322625075E+07,
2460511.500000000, A.D. 2024-Jul-20 00:00:00.0000, 1.126836156213020E+08, -3.094403033614080E+08, -6.453208614019938E+07,
2460518.500000000, A.D. 2024-Jul-27 00:00:00.0000, 1.241992485748707E+08, -3.051912925069109E+08, -6.300881251049618E+07,
2460525.500000000, A.D. 2024-Aug-03 00:00:00.0000, 1.355551783345919E+08, -3.005499214365935E+08, -6.140452468977234E+07,
2460532.500000000, A.D. 2024-Aug-10 00:00:00.0000, 1.467366624228010E+08, -2.955218397930624E+08, -5.972122080708125E+07,
2460539.500000000, A.D. 2024-Aug-17 00:00:00.0000, 1.577292007093127E+08, -2.901132897675701E+08, -5.796102121673226E+07,
2460546.500000000, A.D. 2024-Aug-24 00:00:00.0000, 1.685185643158442E+08, -2.843310953315822E+08, -5.612616460164511E+07,
2460553.500000000, A.D. 2024-Aug-31 00:00:00.0000, 1.790908239848635E+08, -2.781826499748401E+08, -5.421900376253131E+07,
2460560.500000000, A.D. 2024-Sep-07 00:00:00.0000, 1.894323781606933E+08, -2.716759028725375E+08, -5.224200113402130E+07,
2460567.500000000, A.D. 2024-Sep-14 00:00:00.0000, 1.995299807539795E+08, -2.648193425470712E+08, -5.019772397365081E+07,
2460574.500000000, A.D. 2024-Sep-21 00:00:00.0000, 2.093707664493631E+08, -2.576219776807605E+08, -4.808883902402523E+07,
2460581.500000000, A.D. 2024-Sep-28 00:00:00.0000, 2.189422729627325E+08, -2.500933183797031E+08, -4.591810688809380E+07,
2460588.500000000, A.D. 2024-Oct-05 00:00:00.0000, 2.282324638218807E+08, -2.422433579659632E+08, -4.368837647685181E+07,
2460595.500000000, A.D. 2024-Oct-12 00:00:00.0000, 2.372297512253739E+08, -2.340825524084868E+08, -4.140257927809657E+07,
2460602.500000000, A.D. 2024-Oct-19 00:00:00.0000, 2.459230171522883E+08, -2.256217977635313E+08, -3.906372333416660E+07,
2460609.500000000, A.D. 2024-Oct-26 00:00:00.0000, 2.543016326211800E+08, -2.168724065321437E+08, -3.667488701786429E+07,
2460616.500000000, A.D. 2024-Nov-02 00:00:00.0000, 2.623554752929901E+08, -2.078460831937857E+08, -3.423921266876115E+07,
2460623.500000000, A.D. 2024-Nov-09 00:00:00.0000, 2.700749454577321E+08, -1.985548990077741E+08, -3.175990012301059E+07,
2460630.500000000, A.D. 2024-Nov-16 00:00:00.0000, 2.774509803817156E+08, -1.890112661926378E+08, -2.924020016493240E+07,
2460637.500000000, A.D. 2024-Nov-23 00:00:00.0000, 2.844750670254214E+08, -1.792279116405366E+08, -2.668340793582444E+07,
2460644.500000000, A.D. 2024-Nov-30 00:00:00.0000, 2.911392533207926E+08, -1.692178503163181E+08, -2.409285635146151E+07,
2460651.500000000, A.D. 2024-Dec-07 00:00:00.0000, 2.974361584274830E+08, -1.589943580331627E+08, -2.147190956200743E+07,
2460658.500000000, A.D. 2024-Dec-14 00:00:00.0000, 3.033589812935711E+08, -1.485709425041369E+08, -1.882395631943037E+07,
2460665.500000000, A.D. 2024-Dec-21 00:00:00.0000, 3.089015052172355E+08, -1.379613140376225E+08, -1.615240316668683E+07,
2460672.500000000, A.D. 2024-Dec-28 00:00:00.0000, 3.140581003944652E+08, -1.271793589607989E+08, -1.346066789526657E+07,
2460679.500000000, A.D. 2025-Jan-04 00:00:00.0000, 3.188237270712091E+08, -1.162391135006337E+08, -1.075217333707920E+07,
2460686.500000000, A.D. 2025-Jan-11 00:00:00.0000, 3.231939375131791E+08, -1.051547365642672E+08, -8.030341209045164E+06,
2460693.500000000, A.D. 2025-Jan-18 00:00:00.0000, 3.271648759198218E+08, -9.394048243594009E+07, -5.298586021244459E+06,
2460700.500000000, A.D. 2025-Jan-25 00:00:00.0000, 3.307332765761864E+08, -8.261067395809127E+07, -2.560309128188726E+06,
2460707.500000000, A.D. 2025-Feb-01 00:00:00.0000, 3.338964604888895E+08, -7.117967631396700E+07, 1.811070400599502E+05,
2460714.500000000, A.D. 2025-Feb-08 00:00:00.0000, 3.366523306273283E+08, -5.966187147317898E+07, 2.922304547975257E+06,
$$EOE